[{"OBJECT_NAME":"REIMEI (INDEX)","OBJECT_ID":"2005-031B","EPOCH":"2026-03-09T21:15:47.083968","MEAN_MOTION":15.09838737,"ECCENTRICITY":0.00209792,"INCLINATION":97.9988,"RA_OF_ASC_NODE":188.389,"ARG_OF_PERICENTER":89.5619,"MEAN_ANOMALY":270.8013,"EPHEMERIS_TYPE":0,"CLASSIFICATION_TYPE":"U","NORAD_CAT_ID":28810,"ELEMENT_SET_NO":999,"REV_AT_EPOCH":11600,"BSTAR":0.00050498736,"MEAN_MOTION_DOT":8.144e-5,"MEAN_MOTION_DDOT":0},{"OBJECT_NAME":"STARLINK-34739","OBJECT_ID":"2025-165L","EPOCH":"2026-03-09T18:01:24.829248","MEAN_MOTION":15.05645642,"ECCENTRICITY":0.00011746,"INCLINATION":97.602,"RA_OF_ASC_NODE":147.35,"ARG_OF_PERICENTER":27.7702,"MEAN_ANOMALY":332.3587,"EPHEMERIS_TYPE":0,"CLASSIFICATION_TYPE":"U","NORAD_CAT_ID":65066,"ELEMENT_SET_NO":999,"REV_AT_EPOCH":3480,"BSTAR":0.0004926159,"MEAN_MOTION_DOT":7.053e-5,"MEAN_MOTION_DDOT":0}]
